NORAD_CAT_ID,OBJECT_NAME,OBJECT_TYPE,EPOCH,MEAN_MOTION,ECCENTRICITY,INCLINATION,RA_OF_ASC_NODE,ARG_OF_PERICENTER,MEAN_ANOMALY,BSTAR,MEAN_MOTION_DOT,MEAN_MOTION_DDOT,TLE_LINE0,TLE_LINE1,TLE_LINE2,SEMIMAJOR_AXIS,PERIOD,APOGEE,PERIGEE,DECAYED
54008.0,STARLINK-5145,PAYLOAD,2023-09-29 09:46:09,15.0884822,0.000164,53.2175,249.3729,95.9501,264.1678,0.00027697,4.124e-05,0.0,0 STARLINK-5145,1 54008U 22125AW  23272.40705849  .00004124  00000-0  27697-3 0  9997,2 54008  53.2175 249.3729 0001640  95.9501 264.1678 15.08848220 54953,6917.855,95.437,540.855,538.586,0.0
54008.0,STARLINK-5145,PAYLOAD,2023-09-30 03:15:24,15.08842879,0.000159,53.2175,246.103,94.1474,265.97,0.00010871,1.443e-05,0.0,0 STARLINK-5145,1 54008U 22125AW  23273.13570140  .00001443  00000-0  10871-3 0  9999,2 54008  53.2175 246.1030 0001590  94.1474 265.9700 15.08842879 55069,6917.872,95.437,540.837,538.637,0.0
54008.0,STARLINK-5145,PAYLOAD,2023-09-30 04:50:47,15.08845494,0.0001379,53.2165,245.8123,87.5282,272.5868,0.00012991,1.78e-05,0.0,0 STARLINK-5145,1 54008U 22125AW  23273.20194034  .00001780  00000-0  12991-3 0  9990,2 54008  53.2165 245.8123 0001379  87.5282 272.5868 15.08845494 55026,6917.864,95.437,540.683,538.775,0.0
54008.0,STARLINK-5145,PAYLOAD,2023-10-01 07:52:20,15.08849802,0.0001436,53.2174,240.7508,108.1348,251.98,7.2149e-05,8.61e-06,0.0,0 STARLINK-5145,1 54008U 22125AW  23274.32801467  .00000861  00000-0  72149-4 0  9990,2 54008  53.2174 240.7508 0001436 108.1348 251.9800 15.08849802 55242,6917.85,95.437,540.709,538.722,0.0
54008.0,STARLINK-5145,PAYLOAD,2023-10-02 02:56:58,15.08841382,0.0001259,53.2164,237.1786,100.5828,259.5306,-2.1096e-05,-6.24e-06,0.0,0 STARLINK-5145,1 54008U 22125AW  23275.12290358 -.00000624  00000-0 -21096-4 0  9994,2 54008  53.2164 237.1786 0001259 100.5828 259.5306 15.08841382 55364,6917.876,95.437,540.612,538.87,0.0
54008.0,STARLINK-5145,PAYLOAD,2023-10-02 14:04:40,15.08843014,0.0001304,53.2169,235.1007,81.0393,279.0747,1.2423e-05,-9e-07,0.0,0 STARLINK-5145,1 54008U 22125AW  23275.58658104 -.00000090  00000-0  12423-4 0  9991,2 54008  53.2169 235.1007 0001304  81.0393 279.0747 15.08843014 55386,6917.871,95.437,540.638,538.834,0.0
54008.0,STARLINK-5145,PAYLOAD,2023-10-03 04:23:08,15.08845113,0.0001349,53.217,232.4277,105.4268,254.6874,0.00019201,2.77e-05,0.0,0 STARLINK-5145,1 54008U 22125AW  23276.18274221  .00002770  00000-0  19201-3 0  9998,2 54008  53.2170 232.4277 0001349 105.4268 254.6874 15.08845113 55526,6917.865,95.437,540.663,538.797,0.0
54008.0,STARLINK-5145,PAYLOAD,2023-10-03 13:55:28,15.08838695,0.0001508,53.2167,230.6413,84.3463,275.7702,0.00010022,1.307e-05,0.0,0 STARLINK-5145,1 54008U 22125AW  23276.58018603  .00001307  00000-0  10022-3 0  9999,2 54008  53.2167 230.6413 0001508  84.3463 275.7702 15.08838695 55535,6917.884,95.438,540.793,538.706,0.0
54008.0,STARLINK-5145,PAYLOAD,2023-10-04 13:46:15,15.08839107,0.0001388,53.2167,226.1814,93.9791,266.136,3.8667e-05,3.27e-06,0.0,0 STARLINK-5145,1 54008U 22125AW  23277.57378591  .00000327  00000-0  38667-4 0  9991,2 54008  53.2167 226.1814 0001388  93.9791 266.1360 15.08839107 55685,6917.883,95.438,540.708,538.788,0.0
54008.0,STARLINK-5145,PAYLOAD,2023-10-05 02:29:19,15.08849321,0.0001492,53.2165,223.8051,93.5095,266.6067,0.00018955,2.731e-05,0.0,0 STARLINK-5145,1 54008U 22125AW  23278.10370258  .00002731  00000-0  18955-3 0  9991,2 54008  53.2165 223.8051 0001492  93.5095 266.6067 15.08849321 55812,6917.852,95.437,540.749,538.685,0.0
54008.0,STARLINK-5145,PAYLOAD,2023-10-05 05:40:05,15.08862273,0.000122,53.2153,223.2063,111.8556,248.2566,0.00042089,6.421e-05,0.0,0 STARLINK-5145,1 54008U 22125AW  23278.23617532  .00006421  00000-0  42089-3 0  9999,2 54008  53.2153 223.2063 0001220 111.8556 248.2566 15.08862273 55834,6917.812,95.436,540.521,538.833,0.0
54008.0,STARLINK-5145,PAYLOAD,2023-10-05 13:37:02,15.08840937,0.0001842,53.216,221.7207,85.0316,275.0887,6.3678e-05,7.25e-06,0.0,0 STARLINK-5145,1 54008U 22125AW  23278.56738643  .00000725  00000-0  63678-4 0  9991,2 54008  53.2160 221.7207 0001842  85.0316 275.0887 15.08840937 55838,6917.878,95.437,541.017,538.468,0.0
54008.0,STARLINK-5145,PAYLOAD,2023-10-06 05:30:53,15.08853439,0.0001463,53.2154,218.7469,88.6023,271.5137,0.00041728,6.362e-05,0.0,0 STARLINK-5145,1 54008U 22125AW  23279.22978117  .00006362  00000-0  41728-3 0  9991,2 54008  53.2154 218.7469 0001463  88.6023 271.5137 15.08853439 55986,6917.839,95.437,540.716,538.692,0.0
54008.0,STARLINK-5145,PAYLOAD,2023-10-06 13:27:49,15.08836459,0.000205,53.2146,217.2627,79.3402,280.7821,6.8028e-05,7.95e-06,0.0,0 STARLINK-5145,1 54008U 22125AW  23279.56099127  .00000795  00000-0  68028-4 0  9990,2 54008  53.2146 217.2627 0002050  79.3402 280.7821 15.08836459 55983,6917.891,95.438,541.174,538.338,0.0
54008.0,STARLINK-5145,PAYLOAD,2023-10-07 13:18:36,15.08842983,0.0001675,53.2155,212.7973,89.469,270.6494,0.00044873,6.861e-05,0.0,0 STARLINK-5145,1 54008U 22125AW  23280.55459200  .00006861  00000-0  44873-3 0  9994,2 54008  53.2155 212.7973 0001675  89.4690 270.6494 15.08842983 56131,6917.871,95.437,540.895,538.578,0.0
54008.0,STARLINK-5145,PAYLOAD,2023-10-08 02:01:41,15.08854106,0.000158,53.216,210.4183,96.5014,263.6158,0.00077064,0.00012003,0.0,0 STARLINK-5145,1 54008U 22125AW  23281.08450973  .00012003  00000-0  77064-3 0  9994,2 54008  53.2160 210.4183 0001580  96.5014 263.6158 15.08854106 56262,6917.837,95.437,540.795,538.609,0.0
54008.0,STARLINK-5145,PAYLOAD,2023-10-08 05:12:27,15.0886247,0.0001638,53.2158,209.8252,94.0988,266.0191,0.0009795,0.00015345,0.0,0 STARLINK-5145,1 54008U 22125AW  23281.21698770  .00015345  00000-0  97950-3 0  9996,2 54008  53.2158 209.8252 0001638  94.0988 266.0191 15.08862470 56239,6917.812,95.436,540.81,538.544,0.0
54008.0,STARLINK-5145,PAYLOAD,2023-10-08 19:30:55,15.08852033,0.0001827,53.2157,207.1472,90.4529,269.6673,0.0004419,6.754e-05,0.0,0 STARLINK-5145,1 54008U 22125AW  23281.81314800  .00006754  00000-0  44190-3 0  9993,2 54008  53.2157 207.1472 0001827  90.4529 269.6673 15.08852033 56322,6917.844,95.437,540.972,538.445,0.0
54008.0,STARLINK-5145,PAYLOAD,2023-10-09 01:52:28,15.08865863,0.0001258,53.216,205.9581,93.7047,266.4089,0.0009566,0.0001498,0.0,0 STARLINK-5145,1 54008U 22125AW  23282.07810306  .00014980  00000-0  95660-3 0  9992,2 54008  53.2160 205.9581 0001258  93.7047 266.4089 15.08865863 56413,6917.801,95.436,540.537,538.796,0.0
54008.0,STARLINK-5145,PAYLOAD,2023-10-09 05:03:14,15.08870052,0.0001234,53.2161,205.3637,95.969,264.1442,0.0010823,0.00016993,0.0,0 STARLINK-5145,1 54008U 22125AW  23282.21058080  .00016993  00000-0  10823-2 0  9994,2 54008  53.2161 205.3637 0001234  95.9690 264.1442 15.08870052 56382,6917.789,95.436,540.507,538.8,0.0
54008.0,STARLINK-5145,PAYLOAD,2023-10-09 19:21:43,15.08844197,0.0001558,53.2171,202.6895,90.276,269.8411,0.00056281,8.681e-05,0.0,0 STARLINK-5145,1 54008U 22125AW  23282.80674903  .00008681  00000-0  56281-3 0  9991,2 54008  53.2171 202.6895 0001558  90.2760 269.8411 15.08844197 56529,6917.868,95.437,540.81,538.655,0.0
54008.0,STARLINK-5145,PAYLOAD,2023-10-10 01:43:15,15.08837624,0.0001304,53.2166,201.4988,103.0614,257.0524,0.00055267,8.518e-05,0.0,0 STARLINK-5145,1 54008U 22125AW  23283.07170989  .00008518  00000-0  55267-3 0  9998,2 54008  53.2166 201.4988 0001304 103.0614 257.0524 15.08837624 56568,6917.888,95.438,540.655,538.851,0.0
54008.0,STARLINK-5145,PAYLOAD,2023-10-10 11:15:34,15.08835478,0.0001254,53.2166,199.715,83.8626,276.2509,0.00045421,6.947e-05,0.0,0 STARLINK-5145,1 54008U 22125AW  23283.46915345  .00006947  00000-0  45421-3 0  9999,2 54008  53.2166 199.7150 0001254  83.8626 276.2509 15.08835478 56572,6917.894,95.438,540.627,538.892,0.0
54008.0,STARLINK-5145,PAYLOAD,2023-10-11 11:06:21,15.08842846,0.0001073,53.2168,195.2575,95.4587,264.6527,0.00035115,5.306e-05,0.0,0 STARLINK-5145,1 54008U 22125AW  23284.46275443  .00005306  00000-0  35115-3 0  9995,2 54008  53.2168 195.2575 0001073  95.4587 264.6527 15.08842846 56725,6917.872,95.437,540.479,538.994,0.0
54008.0,STARLINK-5145,PAYLOAD,2023-10-12 03:00:13,15.08844843,0.0001319,53.2167,192.2812,92.2232,267.8911,0.00034585,5.221e-05,0.0,0 STARLINK-5145,1 54008U 22125AW  23285.12515696  .00005221  00000-0  34585-3 0  9992,2 54008  53.2167 192.2812 0001319  92.2232 267.8911 15.08844843 56877,6917.866,95.437,540.643,538.818,0.0
54008.0,STARLINK-5145,PAYLOAD,2023-10-12 10:57:09,15.08844299,0.0001406,53.2169,190.7946,80.8797,279.2354,0.00030093,4.505e-05,0.0,0 STARLINK-5145,1 54008U 22125AW  23285.45635775  .00004505  00000-0  30093-3 0  9993,2 54008  53.2169 190.7946 0001406  80.8797 279.2354 15.08844299 56879,6917.867,95.437,540.705,538.76,0.0
54008.0,STARLINK-5145,PAYLOAD,2023-10-12 22:04:51,15.08840906,0.0001493,53.2173,188.7139,80.4094,279.7066,0.00019332,2.79e-05,0.0,0 STARLINK-5145,1 54008U 22125AW  23285.92003967  .00002790  00000-0  19332-3 0  9994,2 54008  53.2173 188.7139 0001493  80.4094 279.7066 15.08840906 56941,6917.878,95.437,540.775,538.71,0.0
54008.0,STARLINK-5145,PAYLOAD,2023-10-13 01:15:37,15.08847502,0.0001401,53.2169,188.1196,86.7332,273.382,0.00022227,3.252e-05,0.0,0 STARLINK-5145,1 54008U 22125AW  23286.05251656  .00003252  00000-0  22227-3 0  9990,2 54008  53.2169 188.1196 0001401  86.7332 273.3820 15.08847502 57012,6917.857,95.437,540.692,538.753,0.0
54008.0,STARLINK-5145,PAYLOAD,2023-10-13 21:55:37,15.08849568,0.0001418,53.2162,184.2534,145.807,214.3013,0.00025166,3.721e-05,0.0,0 STARLINK-5145,1 54008U 22125AW  23286.91363087  .00003721  00000-0  25166-3 0  9993,2 54008  53.2162 184.2534 0001418 145.8070 214.3013 15.08849568 57093,6917.851,95.437,540.697,538.735,0.0
54008.0,STARLINK-5145,PAYLOAD,2023-10-14 10:38:43,15.08843617,0.0001514,53.2176,181.8749,80.5786,279.5377,4.8561e-05,4.85e-06,0.0,0 STARLINK-5145,1 54008U 22125AW  23287.44355327  .00000485  00000-0  48561-4 0  9999,2 54008  53.2176 181.8749 0001514  80.5786 279.5377 15.08843617 57225,6917.869,95.437,540.782,538.687,0.0
